start=new Date('2022-01-27T00:00:00.000Z').valueOf();
sats=[{"REF_FRAME":"TEME","DECAY_DATE":null,"GP_ID":"194677639","MEAN_ELEMENT_THEORY":"SGP4","OBJECT_NAME":"STARLINK-1302","MEAN_MOTION_DDOT":"0.0000000000000","CENTER_NAME":"EARTH","RA_OF_ASC_NODE":"74.4662","MEAN_MOTION":"15.06403736","FILE":"3284266","TIME_SYSTEM":"UTC","LAUNCH_DATE":"2020-03-18","PERIOD":"95.592","EPOCH":"2022-01-26T13:19:06.230208","REV_AT_EPOCH":"10317","OBJECT_TYPE":"PAYLOAD","BSTAR":"0.00000589500000","ELEMENT_SET_NO":"999","CLASSIFICATION_TYPE":"U","OBJECT_ID":"2020-019R","COUNTRY_CODE":"US","MEAN_MOTION_DOT":"-0.00000194","RCS_SIZE":"LARGE","TLE_LINE1":"1 45375U 20019R   22026.55493322 -.00000194  00000-0  58950-5 0  9998","TLE_LINE2":"2 45375  53.0546  74.4662 0001479  84.1508 275.9649 15.06403736103174","ECCENTRICITY":"0.00014790","INCLINATION":"53.0546","SITE":"AFETR","APOAPSIS":"548.226","ARG_OF_PERICENTER":"84.1508","NORAD_CAT_ID":"45375","MEAN_ANOMALY":"275.9649","SEMIMAJOR_AXIS":"6925.337","EPHEMERIS_TYPE":"0","PERIAPSIS":"546.178"},{"DECAY_DATE":null,"REF_FRAME":"TEME","GP_ID":"194678890","MEAN_ELEMENT_THEORY":"SGP4","OBJECT_NAME":"STARLINK-1304","MEAN_MOTION_DDOT":"0.0000000000000","RA_OF_ASC_NODE":"74.6765","CENTER_NAME":"EARTH","MEAN_MOTION":"15.06390429","FILE":"3284266","TIME_SYSTEM":"UTC","LAUNCH_DATE":"2020-03-18","REV_AT_EPOCH":"10316","PERIOD":"95.593","EPOCH":"2022-01-26T12:10:07.391136","BSTAR":"0.00005146800000","OBJECT_TYPE":"PAYLOAD","ELEMENT_SET_NO":"999","CLASSIFICATION_TYPE":"U","OBJECT_ID":"2020-019S","COUNTRY_CODE":"US","MEAN_MOTION_DOT":"0.00000485","RCS_SIZE":"LARGE","TLE_LINE1":"1 45376U 20019S   22026.50702999  .00000485  00000-0  51468-4 0  9995","ECCENTRICITY":"0.00014490","TLE_LINE2":"2 45376  53.0557  74.6765 0001449  74.1799 285.9350 15.06390429103164","APOAPSIS":"548.246","SITE":"AFETR","INCLINATION":"53.0557","ARG_OF_PERICENTER":"74.1799","NORAD_CAT_ID":"45376","SEMIMAJOR_AXIS":"6925.378","EPHEMERIS_TYPE":"0","MEAN_ANOMALY":"285.9350","PERIAPSIS":"546.239"},{"EPOCH":"2022-01-26T14:22:48.799488","PERIOD":"95.592","REV_AT_EPOCH":"10318","BSTAR":"-0.00001312200000","OBJECT_TYPE":"PAYLOAD","CLASSIFICATION_TYPE":"U","ELEMENT_SET_NO":"999","MEAN_MOTION_DOT":"-0.00000477","COUNTRY_CODE":"US","OBJECT_ID":"2020-019T","DECAY_DATE":null,"REF_FRAME":"TEME","MEAN_ELEMENT_THEORY":"SGP4","GP_ID":"194688062","CENTER_NAME":"EARTH","RA_OF_ASC_NODE":"74.2512","OBJECT_NAME":"STARLINK-1305","MEAN_MOTION_DDOT":"0.0000000000000","LAUNCH_DATE":"2020-03-18","FILE":"3284476","MEAN_MOTION":"15.06405211","TIME_SYSTEM":"UTC","NORAD_CAT_ID":"45377","MEAN_ANOMALY":"275.2528","SEMIMAJOR_AXIS":"6925.333","EPHEMERIS_TYPE":"0","PERIAPSIS":"546.290","TLE_LINE1":"1 45377U 20019T   22026.59917592 -.00000477  00000-0 -13122-4 0  9990","RCS_SIZE":"LARGE","TLE_LINE2":"2 45377  53.0540  74.2512 0001311  84.8611 275.2528 15.06405211103189","ECCENTRICITY":"0.00013110","ARG_OF_PERICENTER":"84.8611","SITE":"AFETR","INCLINATION":"53.0540","APOAPSIS":"548.105"},{"REF_FRAME":"TEME","DECAY_DATE":null,"GP_ID":"194677389","MEAN_ELEMENT_THEORY":"SGP4","OBJECT_NAME":"STARLINK-1310","MEAN_MOTION_DDOT":"0.0000000000000","RA_OF_ASC_NODE":"75.2083","CENTER_NAME":"EARTH","FILE":"3284266","TIME_SYSTEM":"UTC","MEAN_MOTION":"15.06409340","LAUNCH_DATE":"2020-03-18","REV_AT_EPOCH":"10315","PERIOD":"95.592","EPOCH":"2022-01-26T09:20:14.956800","BSTAR":"0.00010584000000","OBJECT_TYPE":"PAYLOAD","ELEMENT_SET_NO":"999","CLASSIFICATION_TYPE":"U","OBJECT_ID":"2020-019U","COUNTRY_CODE":"US","MEAN_MOTION_DOT":"0.00001296","RCS_SIZE":"LARGE","TLE_LINE1":"1 45378U 20019U   22026.38906200  .00001296  00000-0  10584-3 0  9998","ECCENTRICITY":"0.00012940","TLE_LINE2":"2 45378  53.0553  75.2083 0001294  81.0520 279.0615 15.06409340103159","APOAPSIS":"548.081","SITE":"AFETR","INCLINATION":"53.0553","ARG_OF_PERICENTER":"81.0520","NORAD_CAT_ID":"45378","EPHEMERIS_TYPE":"0","SEMIMAJOR_AXIS":"6925.320","MEAN_ANOMALY":"279.0615","PERIAPSIS":"546.289"},{"MEAN_MOTION_DOT":"-0.00000224","COUNTRY_CODE":"US","OBJECT_ID":"2020-019V","CLASSIFICATION_TYPE":"U","ELEMENT_SET_NO":"999","BSTAR":"0.00000387300000","OBJECT_TYPE":"PAYLOAD","REV_AT_EPOCH":"10318","EPOCH":"2022-01-26T14:12:11.776608","PERIOD":"95.592","LAUNCH_DATE":"2020-03-18","MEAN_MOTION":"15.06401639","FILE":"3284368","TIME_SYSTEM":"UTC","RA_OF_ASC_NODE":"74.2880","CENTER_NAME":"EARTH","OBJECT_NAME":"STARLINK-1319","MEAN_MOTION_DDOT":"0.0000000000000","MEAN_ELEMENT_THEORY":"SGP4","GP_ID":"194685380","REF_FRAME":"TEME","DECAY_DATE":null,"PERIAPSIS":"546.217","SEMIMAJOR_AXIS":"6925.344","EPHEMERIS_TYPE":"0","MEAN_ANOMALY":"274.6488","NORAD_CAT_ID":"45379","ARG_OF_PERICENTER":"85.4665","APOAPSIS":"548.200","SITE":"AFETR","INCLINATION":"53.0541","ECCENTRICITY":"0.00014320","TLE_LINE2":"2 45379  53.0541  74.2880 0001432  85.4665 274.6488 15.06401639103188","TLE_LINE1":"1 45379U 20019V   22026.59180297 -.00000224  00000-0  38730-5 0  9998","RCS_SIZE":"LARGE"},{"MEAN_MOTION_DDOT":"0.0000000000000","OBJECT_NAME":"STARLINK-1207","CENTER_NAME":"EARTH","RA_OF_ASC_NODE":"54.8905","MEAN_MOTION":"15.06406834","FILE":"3284266","TIME_SYSTEM":"UTC","LAUNCH_DATE":"2020-03-18","DECAY_DATE":null,"REF_FRAME":"TEME","GP_ID":"194678391","MEAN_ELEMENT_THEORY":"SGP4","ELEMENT_SET_NO":"999","CLASSIFICATION_TYPE":"U","OBJECT_ID":"2020-019W","MEAN_MOTION_DOT":"0.00006000","COUNTRY_CODE":"US","PERIOD":"95.592","EPOCH":"2022-01-26T10:58:27.276960","REV_AT_EPOCH":"10343","BSTAR":"0.00042129000000","OBJECT_TYPE":"PAYLOAD","TLE_LINE2":"2 45380  53.0530  54.8905 0001524  58.7993 301.3145 15.06406834103437","ECCENTRICITY":"0.00015240","SITE":"AFETR","INCLINATION":"53.0530","APOAPSIS":"548.248","ARG_OF_PERICENTER":"58.7993","RCS_SIZE":"LARGE","TLE_LINE1":"1 45380U 20019W   22026.45726015  .00006000  00000-0  42129-3 0  9991","MEAN_ANOMALY":"301.3145","EPHEMERIS_TYPE":"0","SEMIMAJOR_AXIS":"6925.328","PERIAPSIS":"546.137","NORAD_CAT_ID":"45380"},{"MEAN_ANOMALY":"272.6766","EPHEMERIS_TYPE":"0","SEMIMAJOR_AXIS":"6925.352","PERIAPSIS":"546.184","NORAD_CAT_ID":"45381","TLE_LINE2":"2 45381  53.0535  54.5359 0001492  87.4394 272.6766 15.06398858103447","ECCENTRICITY":"0.00014920","ARG_OF_PERICENTER":"87.4394","INCLINATION":"53.0535","SITE":"AFETR","APOAPSIS":"548.250","TLE_LINE1":"1 45381U 20019X   22026.53467186  .00002066  00000-0  15756-3 0  9996","RCS_SIZE":"LARGE","ELEMENT_SET_NO":"999","CLASSIFICATION_TYPE":"U","COUNTRY_CODE":"US","MEAN_MOTION_DOT":"0.00002066","OBJECT_ID":"2020-019X","PERIOD":"95.592","EPOCH":"2022-01-26T12:49:55.648704","REV_AT_EPOCH":"10344","OBJECT_TYPE":"PAYLOAD","BSTAR":"0.00015756000000","CENTER_NAME":"EARTH","RA_OF_ASC_NODE":"54.5359","OBJECT_NAME":"STARLINK-1258","MEAN_MOTION_DDOT":"0.0000000000000","LAUNCH_DATE":"2020-03-18","FILE":"3284266","MEAN_MOTION":"15.06398858","TIME_SYSTEM":"UTC","DECAY_DATE":null,"REF_FRAME":"TEME","MEAN_ELEMENT_THEORY":"SGP4","GP_ID":"194678641"},{"NORAD_CAT_ID":"45382","PERIAPSIS":"546.484","MEAN_ANOMALY":"268.2868","EPHEMERIS_TYPE":"0","SEMIMAJOR_AXIS":"6925.347","TLE_LINE1":"1 45382U 20019Y   22026.51256056 -.00000621  00000-0 -22785-4 0  9995","RCS_SIZE":"LARGE","ARG_OF_PERICENTER":"91.8241","SITE":"AFETR","INCLINATION":"53.0556","APOAPSIS":"547.940","TLE_LINE2":"2 45382  53.0556  54.6544 0001051  91.8241 268.2868 15.06400452103267","ECCENTRICITY":"0.00010510","BSTAR":"-0.00002278500000","OBJECT_TYPE":"PAYLOAD","EPOCH":"2022-01-26T12:18:05.232384","PERIOD":"95.592","REV_AT_EPOCH":"10326","COUNTRY_CODE":"US","MEAN_MOTION_DOT":"-0.00000621","OBJECT_ID":"2020-019Y","CLASSIFICATION_TYPE":"U","ELEMENT_SET_NO":"999","MEAN_ELEMENT_THEORY":"SGP4","GP_ID":"194677889","DECAY_DATE":null,"REF_FRAME":"TEME","LAUNCH_DATE":"2020-03-18","MEAN_MOTION":"15.06400452","FILE":"3284266","TIME_SYSTEM":"UTC","CENTER_NAME":"EARTH","RA_OF_ASC_NODE":"54.6544","MEAN_MOTION_DDOT":"0.0000000000000","OBJECT_NAME":"STARLINK-1264"},{"NORAD_CAT_ID":"45383","MEAN_ANOMALY":"276.9886","EPHEMERIS_TYPE":"0","SEMIMAJOR_AXIS":"6925.336","PERIAPSIS":"546.313","TLE_LINE1":"1 45383U 20019Z   22026.46094905  .00000091  00000-0  24992-4 0  9994","RCS_SIZE":"LARGE","TLE_LINE2":"2 45383  53.0560  54.8688 0001282  83.1249 276.9886 15.06404050103435","ECCENTRICITY":"0.00012820","ARG_OF_PERICENTER":"83.1249","SITE":"AFETR","INCLINATION":"53.0560","APOAPSIS":"548.089","PERIOD":"95.592","EPOCH":"2022-01-26T11:03:45.997920","REV_AT_EPOCH":"10343","BSTAR":"0.00002499200000","OBJECT_TYPE":"PAYLOAD","CLASSIFICATION_TYPE":"U","ELEMENT_SET_NO":"999","MEAN_MOTION_DOT":"0.00000091","COUNTRY_CODE":"US","OBJECT_ID":"2020-019Z","REF_FRAME":"TEME","DECAY_DATE":null,"MEAN_ELEMENT_THEORY":"SGP4","GP_ID":"194677640","CENTER_NAME":"EARTH","RA_OF_ASC_NODE":"54.8688","OBJECT_NAME":"STARLINK-1266","MEAN_MOTION_DDOT":"0.0000000000000","LAUNCH_DATE":"2020-03-18","MEAN_MOTION":"15.06404050","FILE":"3284266","TIME_SYSTEM":"UTC"},{"EPHEMERIS_TYPE":"0","SEMIMAJOR_AXIS":"6925.338","MEAN_ANOMALY":"285.3009","PERIAPSIS":"546.260","NORAD_CAT_ID":"45384","ECCENTRICITY":"0.00013620","TLE_LINE2":"2 45384  53.0562  54.9204 0001362  74.8131 285.3009 15.06403360103433","APOAPSIS":"548.146","SITE":"AFETR","INCLINATION":"53.0562","ARG_OF_PERICENTER":"74.8131","RCS_SIZE":"LARGE","TLE_LINE1":"1 45384U 20019AA  22026.44989314  .00001481  00000-0  11827-3 0  9996","ELEMENT_SET_NO":"999","CLASSIFICATION_TYPE":"U","OBJECT_ID":"2020-019AA","MEAN_MOTION_DOT":"0.00001481","COUNTRY_CODE":"US","REV_AT_EPOCH":"10343","EPOCH":"2022-01-26T10:47:50.767296","PERIOD":"95.592","BSTAR":"0.00011827000000","OBJECT_TYPE":"PAYLOAD","MEAN_MOTION_DDOT":"0.0000000000000","OBJECT_NAME":"STARLINK-1267","RA_OF_ASC_NODE":"54.9204","CENTER_NAME":"EARTH","MEAN_MOTION":"15.06403360","FILE":"3284266","TIME_SYSTEM":"UTC","LAUNCH_DATE":"2020-03-18","DECAY_DATE":null,"REF_FRAME":"TEME","GP_ID":"194678891","MEAN_ELEMENT_THEORY":"SGP4"}];
